IRIDIUM 106             
1 41917U 17003A   23344.33711883  .00000289  00000+0  96050-4 0  9995
2 41917  86.3962 112.9693 0002287  89.4864 270.6594 14.34216570361362
IRIDIUM 103             
1 41918U 17003B   23344.32442781  .00000278  00000+0  92320-4 0  9997
2 41918  86.3964 112.8777 0002180 100.8814 259.2627 14.34217835361389
IRIDIUM 109             
1 41919U 17003C   23344.33076172  .00000282  00000+0  93519-4 0  9992
2 41919  86.3964 112.9190 0001874  99.5992 260.5416 14.34216319361354
IRIDIUM 102             
1 41920U 17003D   23344.36882229  .00000285  00000+0  94848-4 0  9994
2 41920  86.3962 112.8463 0001889  95.5627 264.5784 14.34218976361446
IRIDIUM 105             
1 41921U 17003E   23344.26976397  .00000305  00000+0  10168-3 0  9999
2 41921  86.3972  81.2951 0002146  97.2406 262.9034 14.34213111363280
IRIDIUM 104             
1 41922U 17003F   23343.40474989  .00000280  00000+0  93035-4 0  9992
2 41922  86.3962 113.2776 0001943 100.3690 259.7725 14.34216391361299
IRIDIUM 114             
1 41923U 17003G   23343.82970246  .00000277  00000+0  91706-4 0  9995
2 41923  86.3963 113.0869 0002087  86.6722 273.4712 14.34218630361336
IRIDIUM 108             
1 41924U 17003H   23344.27659673 -.00000209  00000+0 -81613-4 0  9997
2 41924  86.3969  81.2295 0002233  92.7022 267.4430 14.34215141363253
